{
  "type": "FeatureCollection",
  "features": [
    {
      "type": "Feature",
      "properties": {
        "norad_id": 41026,
        "name": "YAOGAN-28",
        "group": "resource",
        "lat": 19.99741816436113,
        "lon": -45.15264881633247,
        "alt_km": 488.0456621910989,
        "timestamp": "2025-12-20T14:38:01.615770+00:00",
        "meta_object_name": "YAOGAN-28",
        "meta_object_id": "2015-064A",
        "meta_epoch": "2025-12-20T07:38:06.839808",
        "meta_mean_motion": 15.24468109,
        "meta_eccentricity": 0.00126182,
        "meta_inclination": 97.281,
        "meta_ra_of_asc_node": 131.8971,
        "meta_arg_of_pericenter": 101.9108,
        "meta_mean_anomaly": 258.3545,
        "meta_ephemeris_type": 0,
        "meta_classification_type": "U",
        "meta_norad_cat_id": 41026,
        "meta_element_set_no": 999,
        "meta_rev_at_epoch": 56340,
        "meta_bstar": 0.00023145887,
        "meta_mean_motion_dot": 5.627e-05,
        "meta_mean_motion_ddot": 0,
        "tle_line1": "1 41026U 15064A   25354.31813472  .00005627  00000+0  23146-3 0  9995",
        "tle_line2": "2 41026  97.2810 131.8971 0012618 101.9108 258.3545 15.24468109563400"
      },
      "geometry": {
        "type": "Point",
        "coordinates": [
          -45.15264881633247,
          19.99741816436113
        ]
      }
    },
    {
      "type": "Feature",
      "properties": {
        "norad_id": 41038,
        "name": "YAOGAN-29",
        "group": "resource",
        "lat": 18.122597645355338,
        "lon": -159.5475379325657,
        "alt_km": 620.2495516012077,
        "timestamp": "2025-12-20T14:38:01.615780+00:00",
        "meta_object_name": "YAOGAN-29",
        "meta_object_id": "2015-069A",
        "meta_epoch": "2025-12-20T07:25:46.885152",
        "meta_mean_motion": 14.82892835,
        "meta_eccentricity": 5.053e-05,
        "meta_inclination": 98.0212,
        "meta_ra_of_asc_node": 17.5061,
        "meta_arg_of_pericenter": 173.5724,
        "meta_mean_anomaly": 186.5496,
        "meta_ephemeris_type": 0,
        "meta_classification_type": "U",
        "meta_norad_cat_id": 41038,
        "meta_element_set_no": 999,
        "meta_rev_at_epoch": 54411,
        "meta_bstar": 0.00012603678,
        "meta_mean_motion_dot": 9.67e-06,
        "meta_mean_motion_ddot": 0,
        "tle_line1": "1 41038U 15069A   25354.30957043  .00000967  00000+0  12604-3 0  9994",
        "tle_line2": "2 41038  98.0212  17.5061 0000505 173.5724 186.5496 14.82892835544113"
      },
      "geometry": {
        "type": "Point",
        "coordinates": [
          -159.5475379325657,
          18.122597645355338
        ]
      }
    },
    {
      "type": "Feature",
      "properties": {
        "norad_id": 41167,
        "name": "KENT RIDGE 1",
        "group": "resource",
        "lat": -4.882993389976634,
        "lon": -8.619718165000524,
        "alt_km": 494.30090169605955,
        "timestamp": "2025-12-20T14:38:01.615790+00:00",
        "meta_object_name": "KENT RIDGE 1",
        "meta_object_id": "2015-077B",
        "meta_epoch": "2025-12-20T02:45:02.433600",
        "meta_mean_motion": 15.21689369,
        "meta_eccentricity": 0.00085141,
        "meta_inclination": 14.9782,
        "meta_ra_of_asc_node": 156.4146,
        "meta_arg_of_pericenter": 235.187,
        "meta_mean_anomaly": 124.765,
        "meta_ephemeris_type": 0,
        "meta_classification_type": "U",
        "meta_norad_cat_id": 41167,
        "meta_element_set_no": 999,
        "meta_rev_at_epoch": 55376,
        "meta_bstar": 0.0001172665,
        "meta_mean_motion_dot": 3.486e-05,
        "meta_mean_motion_ddot": 0,
        "tle_line1": "1 41167U 15077B   25354.11461150  .00003486  00000+0  11727-3 0  9998",
        "tle_line2": "2 41167  14.9782 156.4146 0008514 235.1870 124.7650 15.21689369553764"
      },
      "geometry": {
        "type": "Point",
        "coordinates": [
          -8.619718165000524,
          -4.882993389976634
        ]
      }
    },
    {
      "type": "Feature",
      "properties": {
        "norad_id": 41194,
        "name": "GAOFEN-4",
        "group": "resource",
        "lat": -0.06311800525300011,
        "lon": 54.62758459363078,
        "alt_km": 35792.1281924796,
        "timestamp": "2025-12-20T14:38:01.615804+00:00",
        "meta_object_name": "GAOFEN-4",
        "meta_object_id": "2015-083A",
        "meta_epoch": "2025-12-19T15:27:26.627616",
        "meta_mean_motion": 1.00273138,
        "meta_eccentricity": 0.0002945,
        "meta_inclination": 0.1878,
        "meta_ra_of_asc_node": 81.7841,
        "meta_arg_of_pericenter": 93.4275,
        "meta_mean_anomaly": 250.8523,
        "meta_ephemeris_type": 0,
        "meta_classification_type": "U",
        "meta_norad_cat_id": 41194,
        "meta_element_set_no": 999,
        "meta_rev_at_epoch": 3672,
        "meta_bstar": 0,
        "meta_mean_motion_dot": -3.11e-06,
        "meta_mean_motion_ddot": 0,
        "tle_line1": "1 41194U 15083A   25353.64405819 -.00000311  00000+0  00000+0 0  9995",
        "tle_line2": "2 41194   0.1878  81.7841 0002945  93.4275 250.8523  1.00273138 36722"
      },
      "geometry": {
        "type": "Point",
        "coordinates": [
          54.62758459363078,
          -0.06311800525300011
        ]
      }
    },
    {
      "type": "Feature",
      "properties": {
        "norad_id": 41240,
        "name": "JASON-3",
        "group": "resource",
        "lat": 58.494045814127155,
        "lon": -172.21760308446457,
        "alt_km": 1309.5583917814647,
        "timestamp": "2025-12-20T14:38:01.615815+00:00",
        "meta_object_name": "JASON-3",
        "meta_object_id": "2016-002A",
        "meta_epoch": "2025-12-20T06:49:14.514528",
        "meta_mean_motion": 12.87626871,
        "meta_eccentricity": 0.00072202,
        "meta_inclination": 66.0399,
        "meta_ra_of_asc_node": 141.9627,
        "meta_arg_of_pericenter": 271.2739,
        "meta_mean_anomaly": 88.7453,
        "meta_ephemeris_type": 0,
        "meta_classification_type": "U",
        "meta_norad_cat_id": 41240,
        "meta_element_set_no": 999,
        "meta_rev_at_epoch": 46421,
        "meta_bstar": -2.5784082e-05,
        "meta_mean_motion_dot": -6.9e-07,
        "meta_mean_motion_ddot": 0,
        "tle_line1": "1 41240U 16002A   25354.28419577 -.00000069  00000+0 -25784-4 0  9998",
        "tle_line2": "2 41240  66.0399 141.9627 0007220 271.2739  88.7453 12.87626871464218"
      },
      "geometry": {
        "type": "Point",
        "coordinates": [
          -172.21760308446457,
          58.494045814127155
        ]
      }
    },
    {
      "type": "Feature",
      "properties": {
        "norad_id": 41335,
        "name": "SENTINEL-3A",
        "group": "resource",
        "lat": 70.42001307009137,
        "lon": 34.235422901836834,
        "alt_km": 795.2215549190469,
        "timestamp": "2025-12-20T14:38:01.615825+00:00",
        "meta_object_name": "SENTINEL-3A",
        "meta_object_id": "2016-011A",
        "meta_epoch": "2025-12-20T04:11:49.856640",
        "meta_mean_motion": 14.26733364,
        "meta_eccentricity": 9.033e-05,
        "meta_inclination": 98.6305,
        "meta_ra_of_asc_node": 59.0836,
        "meta_arg_of_pericenter": 93.9672,
        "meta_mean_anomaly": 266.1612,
        "meta_ephemeris_type": 0,
        "meta_classification_type": "U",
        "meta_norad_cat_id": 41335,
        "meta_element_set_no": 999,
        "meta_rev_at_epoch": 51253,
        "meta_bstar": 5.9604828e-05,
        "meta_mean_motion_dot": 1.01e-06,
        "meta_mean_motion_ddot": 0,
        "tle_line1": "1 41335U 16011A   25354.17488260  .00000101  00000+0  59605-4 0  9990",
        "tle_line2": "2 41335  98.6305  59.0836 0000903  93.9672 266.1612 14.26733364512537"
      },
      "geometry": {
        "type": "Point",
        "coordinates": [
          34.235422901836834,
          70.42001307009137
        ]
      }
    },
    {
      "type": "Feature",
      "properties": {
        "norad_id": 41556,
        "name": "ZIYUAN 3-02 (ZY 3-02)",
        "group": "resource",
        "lat": -20.894398794131497,
        "lon": 71.49158634039934,
        "alt_km": 511.7465996376068,
        "timestamp": "2025-12-20T14:38:01.615836+00:00",
        "meta_object_name": "ZIYUAN 3-02 (ZY 3-02)",
        "meta_object_id": "2016-033A",
        "meta_epoch": "2025-12-20T06:49:57.310176",
        "meta_mean_motion": 15.21155292,
        "meta_eccentricity": 0.00110336,
        "meta_inclination": 97.4039,
        "meta_ra_of_asc_node": 68.3266,
        "meta_arg_of_pericenter": 217.9081,
        "meta_mean_anomaly": 142.1379,
        "meta_ephemeris_type": 0,
        "meta_classification_type": "U",
        "meta_norad_cat_id": 41556,
        "meta_element_set_no": 999,
        "meta_rev_at_epoch": 53078,
        "meta_bstar": 0.00023221728,
        "meta_mean_motion_dot": 5.111e-05,
        "meta_mean_motion_ddot": 0,
        "tle_line1": "1 41556U 16033A   25354.28469109  .00005111  00000+0  23222-3 0  9993",
        "tle_line2": "2 41556  97.4039  68.3266 0011033 217.9081 142.1379 15.21155292530785"
      },
      "geometry": {
        "type": "Point",
        "coordinates": [
          71.49158634039934,
          -20.894398794131497
        ]
      }
    }
  ]
}